sat35499
1 35499U 09036B   20046.75188053  .00000047  00000-0  26934-3 0  9995
2 35499  82.4877  80.3114 0017104 142.7915 217.4353 12.42922167481494
